{
    "links": {
        "self": "http://www.neowsapp.com/rest/v1/neo/3788145?api_key=iIulBulltgU6a56xZRHN4H3l9WmuAYTsLGpBGhQ2"
    },
    "id": "3788145",
    "neo_reference_id": "3788145",
    "name": "(2017 UG43)",
    "designation": "2017 UG43",
    "nasa_jpl_url": "http://ssd.jpl.nasa.gov/sbdb.cgi?sstr=3788145",
    "absolute_magnitude_h": 24.5,
    "estimated_diameter": {
        "kilometers": {
            "estimated_diameter_min": 0.0334622374,
            "estimated_diameter_max": 0.0748238376
        },
        "meters": {
            "estimated_diameter_min": 33.4622374455,
            "estimated_diameter_max": 74.8238376074
        },
        "miles": {
            "estimated_diameter_min": 0.0207924639,
            "estimated_diameter_max": 0.0464933628
        },
        "feet": {
            "estimated_diameter_min": 109.7842471007,
            "estimated_diameter_max": 245.4850393757
        }
    },
    "is_potentially_hazardous_asteroid": false,
    "close_approach_data": [
        {
            "close_approach_date": "2017-10-04",
            "close_approach_date_full": "2017-Oct-04 07:32",
            "epoch_date_close_approach": 1507102320000,
            "relative_velocity": {
                "kilometers_per_second": "4.6822496844",
                "kilometers_per_hour": "16856.0988639837",
                "miles_per_hour": "10473.7243191237"
            },
            "miss_distance": {
                "astronomical": "0.1245945582",
                "lunar": "48.4672831398",
                "kilometers": "18639080.520311034",
                "miles": "11581787.5806949092"
            },
            "orbiting_body": "Earth"
        }
    ],
    "orbital_data": {
        "orbit_id": "2",
        "orbit_determination_date": "2017-11-11 06:19:40",
        "first_observation_date": "2017-10-28",
        "last_observation_date": "2017-11-10",
        "data_arc_in_days": 13,
        "observations_used": 12,
        "orbit_uncertainty": "9",
        "minimum_orbit_intersection": ".124186",
        "jupiter_tisserand_invariant": "3.986",
        "epoch_osculation": "2458055.5",
        "eccentricity": ".3834018723447892",
        "semi_major_axis": "1.789404340831634",
        "inclination": "5.769869402559678",
        "ascending_node_longitude": "49.44815200685688",
        "orbital_period": "874.3013655129865",
        "perihelion_distance": "1.103343366174892",
        "perihelion_argument": "314.3808317872341",
        "aphelion_distance": "2.475465315488375",
        "perihelion_time": "2458024.118454497455",
        "mean_anomaly": "12.92158153531832",
        "mean_motion": ".411757334713499",
        "equinox": "J2000",
        "orbit_class": {
            "orbit_class_type": "AMO",
            "orbit_class_description": "Near-Earth asteroid orbits similar to that of 1221 Amor",
            "orbit_class_range": "1.017 AU < q (perihelion) < 1.3 AU"
        }
    },
    "is_sentry_object": false
}